[{"OBJECT_NAME":"STARLINK-36998","OBJECT_ID":"2026-055AA","EPOCH":"2026-04-08T06:34:11.205984","MEAN_MOTION":15.80957014,"ECCENTRICITY":0.00013977,"INCLINATION":53.1578,"RA_OF_ASC_NODE":188.8143,"ARG_OF_PERICENTER":80.8577,"MEAN_ANOMALY":279.2604,"EPHEMERIS_TYPE":0,"CLASSIFICATION_TYPE":"U","NORAD_CAT_ID":68286,"ELEMENT_SET_NO":999,"REV_AT_EPOCH":436,"BSTAR":0.001175892,"MEAN_MOTION_DOT":0.00238839,"MEAN_MOTION_DDOT":0},{"OBJECT_NAME":"STARLINK-37165","OBJECT_ID":"2026-055AB","EPOCH":"2026-04-08T06:33:06.291072","MEAN_MOTION":15.8092855,"ECCENTRICITY":4.425e-5,"INCLINATION":53.1579,"RA_OF_ASC_NODE":188.8073,"ARG_OF_PERICENTER":91.5133,"MEAN_ANOMALY":268.594,"EPHEMERIS_TYPE":0,"CLASSIFICATION_TYPE":"U","NORAD_CAT_ID":68287,"ELEMENT_SET_NO":999,"REV_AT_EPOCH":436,"BSTAR":0.0019713894,"MEAN_MOTION_DOT":0.00408446,"MEAN_MOTION_DDOT":0},{"OBJECT_NAME":"STARLINK-37016","OBJECT_ID":"2026-055AC","EPOCH":"2026-04-08T06:35:15.799488","MEAN_MOTION":15.80973794,"ECCENTRICITY":0.00011527,"INCLINATION":53.1578,"RA_OF_ASC_NODE":188.8176,"ARG_OF_PERICENTER":70.6834,"MEAN_ANOMALY":289.4313,"EPHEMERIS_TYPE":0,"CLASSIFICATION_TYPE":"U","NORAD_CAT_ID":68288,"ELEMENT_SET_NO":999,"REV_AT_EPOCH":436,"BSTAR":0.0013575368,"MEAN_MOTION_DOT":0.00277303,"MEAN_MOTION_DDOT":0},{"OBJECT_NAME":"STARLINK-37010","OBJECT_ID":"2026-055AD","EPOCH":"2026-04-08T06:32:01.459968","MEAN_MOTION":15.80968978,"ECCENTRICITY":0.00012918,"INCLINATION":53.1577,"RA_OF_ASC_NODE":188.8021,"ARG_OF_PERICENTER":93.9131,"MEAN_ANOMALY":266.2039,"EPHEMERIS_TYPE":0,"CLASSIFICATION_TYPE":"U","NORAD_CAT_ID":68289,"ELEMENT_SET_NO":999,"REV_AT_EPOCH":436,"BSTAR":0.0012768742,"MEAN_MOTION_DOT":0.00260204,"MEAN_MOTION_DDOT":0},{"OBJECT_NAME":"STARLINK-37151","OBJECT_ID":"2026-055AE","EPOCH":"2026-04-08T06:30:56.602944","MEAN_MOTION":15.8097926,"ECCENTRICITY":0.0001485,"INCLINATION":53.1578,"RA_OF_ASC_NODE":188.7969,"ARG_OF_PERICENTER":98.3808,"MEAN_ANOMALY":261.7383,"EPHEMERIS_TYPE":0,"CLASSIFICATION_TYPE":"U","NORAD_CAT_ID":68290,"ELEMENT_SET_NO":999,"REV_AT_EPOCH":436,"BSTAR":0.0014099407,"MEAN_MOTION_DOT":0.00288484,"MEAN_MOTION_DDOT":0},{"OBJECT_NAME":"STRIX-6","OBJECT_ID":"2026-056A","EPOCH":"2026-04-07T23:22:59.609856","MEAN_MOTION":14.99729641,"ECCENTRICITY":0.00164531,"INCLINATION":50.2836,"RA_OF_ASC_NODE":321.581,"ARG_OF_PERICENTER":334.765,"MEAN_ANOMALY":25.2494,"EPHEMERIS_TYPE":0,"CLASSIFICATION_TYPE":"U","NORAD_CAT_ID":68291,"ELEMENT_SET_NO":999,"REV_AT_EPOCH":273,"BSTAR":0.00030291811,"MEAN_MOTION_DOT":3.53e-5,"MEAN_MOTION_DDOT":0},{"OBJECT_NAME":"STARLINK-37107","OBJECT_ID":"2026-057A","EPOCH":"2026-04-08T06:00:00.999648","MEAN_MOTION":15.80801247,"ECCENTRICITY":0.00013438,"INCLINATION":97.2833,"RA_OF_ASC_NODE":222.1038,"ARG_OF_PERICENTER":79.9472,"MEAN_ANOMALY":289.9039,"EPHEMERIS_TYPE":0,"CLASSIFICATION_TYPE":"U","NORAD_CAT_ID":68294,"ELEMENT_SET_NO":999,"REV_AT_EPOCH":391,"BSTAR":0.00039992065,"MEAN_MOTION_DOT":0.0007709,"MEAN_MOTION_DDOT":0},{"OBJECT_NAME":"STARLINK-37147","OBJECT_ID":"2026-057B","EPOCH":"2026-04-08T06:00:00.999648","MEAN_MOTION":15.80786824,"ECCENTRICITY":0.00013136,"INCLINATION":97.2834,"RA_OF_ASC_NODE":222.1042,"ARG_OF_PERICENTER":83.2107,"MEAN_ANOMALY":290.9164,"EPHEMERIS_TYPE":0,"CLASSIFICATION_TYPE":"U","NORAD_CAT_ID":68295,"ELEMENT_SET_NO":999,"REV_AT_EPOCH":390,"BSTAR":0.00050828821,"MEAN_MOTION_DOT":0.00098191,"MEAN_MOTION_DDOT":0},{"OBJECT_NAME":"STARLINK-37142","OBJECT_ID":"2026-057C","EPOCH":"2026-04-08T06:00:00.999648","MEAN_MOTION":15.80826497,"ECCENTRICITY":0.00013505,"INCLINATION":97.2834,"RA_OF_ASC_NODE":222.11,"ARG_OF_PERICENTER":81.4374,"MEAN_ANOMALY":305.5049,"EPHEMERIS_TYPE":0,"CLASSIFICATION_TYPE":"U","NORAD_CAT_ID":68296,"ELEMENT_SET_NO":999,"REV_AT_EPOCH":379,"BSTAR":0.00051879382,"MEAN_MOTION_DOT":0.00100431,"MEAN_MOTION_DDOT":0},{"OBJECT_NAME":"STARLINK-37115","OBJECT_ID":"2026-057D","EPOCH":"2026-04-08T06:00:00.999648","MEAN_MOTION":15.80755738,"ECCENTRICITY":0.00014739,"INCLINATION":97.2835,"RA_OF_ASC_NODE":222.1067,"ARG_OF_PERICENTER":84.8156,"MEAN_ANOMALY":297.8717,"EPHEMERIS_TYPE":0,"CLASSIFICATION_TYPE":"U","NORAD_CAT_ID":68297,"ELEMENT_SET_NO":999,"REV_AT_EPOCH":379,"BSTAR":0.0009361323,"MEAN_MOTION_DOT":0.0018247,"MEAN_MOTION_DDOT":0},{"OBJECT_NAME":"STARLINK-36355","OBJECT_ID":"2026-057E","EPOCH":"2026-04-08T06:00:00.999648","MEAN_MOTION":15.80784338,"ECCENTRICITY":0.00012867,"INCLINATION":97.2835,"RA_OF_ASC_NODE":222.106,"ARG_OF_PERICENTER":90.5104,"MEAN_ANOMALY":287.8877,"EPHEMERIS_TYPE":0,"CLASSIFICATION_TYPE":"U","NORAD_CAT_ID":68298,"ELEMENT_SET_NO":999,"REV_AT_EPOCH":406,"BSTAR":0.00049816572,"MEAN_MOTION_DOT":0.00096199,"MEAN_MOTION_DDOT":0},{"OBJECT_NAME":"STARLINK-37118","OBJECT_ID":"2026-057F","EPOCH":"2026-04-08T06:00:00.999648","MEAN_MOTION":15.80819968,"ECCENTRICITY":0.00012661,"INCLINATION":97.2838,"RA_OF_ASC_NODE":222.1117,"ARG_OF_PERICENTER":82.3969,"MEAN_ANOMALY":313.0836,"EPHEMERIS_TYPE":0,"CLASSIFICATION_TYPE":"U","NORAD_CAT_ID":68299,"ELEMENT_SET_NO":999,"REV_AT_EPOCH":390,"BSTAR":0.00027804857,"MEAN_MOTION_DOT":0.00053454,"MEAN_MOTION_DDOT":0},{"OBJECT_NAME":"STARLINK-36875","OBJECT_ID":"2026-057G","EPOCH":"2026-04-08T06:00:00.999648","MEAN_MOTION":15.80805865,"ECCENTRICITY":0.00012928,"INCLINATION":97.2837,"RA_OF_ASC_NODE":222.1108,"ARG_OF_PERICENTER":86.2192,"MEAN_ANOMALY":304.9913,"EPHEMERIS_TYPE":0,"CLASSIFICATION_TYPE":"U","NORAD_CAT_ID":68300,"ELEMENT_SET_NO":999,"REV_AT_EPOCH":396,"BSTAR":0.00048610949,"MEAN_MOTION_DOT":0.00093936,"MEAN_MOTION_DDOT":0},{"OBJECT_NAME":"STARLINK-37099","OBJECT_ID":"2026-057H","EPOCH":"2026-04-08T06:00:00.999648","MEAN_MOTION":15.80801187,"ECCENTRICITY":0.00013147,"INCLINATION":97.2833,"RA_OF_ASC_NODE":222.1133,"ARG_OF_PERICENTER":81.4877,"MEAN_ANOMALY":318.2822,"EPHEMERIS_TYPE":0,"CLASSIFICATION_TYPE":"U","NORAD_CAT_ID":68301,"ELEMENT_SET_NO":999,"REV_AT_EPOCH":379,"BSTAR":0.00025812076,"MEAN_MOTION_DOT":0.00049548,"MEAN_MOTION_DDOT":0},{"OBJECT_NAME":"STARLINK-37007","OBJECT_ID":"2026-057J","EPOCH":"2026-04-08T06:00:00.999648","MEAN_MOTION":15.80813429,"ECCENTRICITY":0.00014088,"INCLINATION":97.2835,"RA_OF_ASC_NODE":222.116,"ARG_OF_PERICENTER":100.8998,"MEAN_ANOMALY":307.4152,"EPHEMERIS_TYPE":0,"CLASSIFICATION_TYPE":"U","NORAD_CAT_ID":68302,"ELEMENT_SET_NO":999,"REV_AT_EPOCH":401,"BSTAR":0.00017394384,"MEAN_MOTION_DOT":0.000333,"MEAN_MOTION_DDOT":0}]
