STARLINK-36998          
1 68286U 26055AA  26098.27374081  .00238839  00000+0  11759-2 0  9992
2 68286  53.1578 188.8143 0001397  80.8577 279.2604 15.80957014  4362
STARLINK-37165          
1 68287U 26055AB  26098.27298948  .00408446  00000+0  19714-2 0  9992
2 68287  53.1579 188.8073 0000442  91.5133 268.5940 15.80928550  4360
STARLINK-37016          
1 68288U 26055AC  26098.27448842  .00277303  00000+0  13575-2 0  9998
2 68288  53.1578 188.8176 0001152  70.6834 289.4313 15.80973794  4365
STARLINK-37010          
1 68289U 26055AD  26098.27223912  .00260204  00000+0  12769-2 0  9994
2 68289  53.1577 188.8021 0001291  93.9131 266.2039 15.80968978  4362
STARLINK-37151          
1 68290U 26055AE  26098.27148846  .00288484  00000+0  14099-2 0  9996
2 68290  53.1578 188.7969 0001485  98.3808 261.7383 15.80979260  4368
STRIX-6                 
1 68291U 26056A   26097.97430104  .00003530  00000+0  30292-3 0  9996
2 68291  50.2836 321.5810 0016453 334.7650  25.2494 14.99729641  2739
STARLINK-37107          
1 68294U 26057A   26098.25001157  .00077090  00000+0  39992-3 0  9992
2 68294  97.2833 222.1038 0001343  79.9472 289.9039 15.80801247  3919
STARLINK-37147          
1 68295U 26057B   26098.25001157  .00098191  00000+0  50829-3 0  9990
2 68295  97.2834 222.1042 0001313  83.2107 290.9164 15.80786824  3909
STARLINK-37142          
1 68296U 26057C   26098.25001157  .00100431  00000+0  51879-3 0  9998
2 68296  97.2834 222.1100 0001350  81.4374 305.5049 15.80826497  3795
STARLINK-37115          
1 68297U 26057D   26098.25001157  .00182470  00000+0  93613-3 0  9994
2 68297  97.2835 222.1067 0001473  84.8156 297.8717 15.80755738  3794
STARLINK-36355          
1 68298U 26057E   26098.25001157  .00096199  00000+0  49817-3 0  9994
2 68298  97.2835 222.1060 0001286  90.5104 287.8877 15.80784338  4062
STARLINK-37118          
1 68299U 26057F   26098.25001157  .00053454  00000+0  27805-3 0  9995
2 68299  97.2838 222.1117 0001266  82.3969 313.0836 15.80819968  3902
STARLINK-36875          
1 68300U 26057G   26098.25001157  .00093936  00000+0  48611-3 0  9995
2 68300  97.2837 222.1108 0001292  86.2192 304.9913 15.80805865  3966
STARLINK-37099          
1 68301U 26057H   26098.25001157  .00049548  00000+0  25812-3 0  9994
2 68301  97.2833 222.1133 0001314  81.4877 318.2822 15.80801187  3794
STARLINK-37007          
1 68302U 26057J   26098.25001157  .00033300  00000+0  17394-3 0  9990
2 68302  97.2835 222.1160 0001408 100.8998 307.4152 15.80813429  4015
